ORBCOMM FM05            
1 25117U 97084F   25115.70430572  .00003372  00000+0  98228-3 0  9992
2 25117  45.0139 260.0138 0002162 269.6882  90.3722 14.45754787433018
ORBCOMM FM06            
1 25118U 97084G   25115.87109704  .00003224  00000+0  93839-3 0  9990
2 25118  45.0133 259.0073 0001490 245.6055 280.7392 14.45891566433956
ORBCOMM FM07            
1 25119U 97084H   25115.78325156  .00003161  00000+0  92122-3 0  9996
2 25119  45.0126 260.1972 0002949 274.5061  85.5453 14.45872678433938
ORBCOMM FM03            
1 25158U 98007B   25115.75221747  .00002308  00000+0  85557-3 0  9999
2 25158 107.9649  27.9018 0046349 339.2077  20.7177 14.34358814416526
ORBCOMM FM04            
1 25159U 98007C   25115.53641177  .00002324  00000+0  85889-3 0  9995
2 25159 107.9633  30.6433 0042149 336.9293  22.9954 14.34613085416677
ORBCOMM FM17            
1 25413U 98046A   25115.90753411  .00001329  00000+0  51152-3 0  9997
2 25413  44.9928 144.3200 0004669 290.9857  69.0490 14.34985912395665
ORBCOMM FM18            
1 25414U 98046B   25115.91554862  .00003036  00000+0  10320-2 0  9996
2 25414  44.9926  63.0674 0005693   3.0135 357.0747 14.38405597396729
ORBCOMM FM19            
1 25415U 98046C   25115.93384638  .00002920  00000+0  99831-3 0  9997
2 25415  44.9936  64.8976 0004655 352.9010  53.9270 14.38211220396686
